NORAD_CAT_ID,OBJECT_NAME,OBJECT_TYPE,EPOCH,MEAN_MOTION,ECCENTRICITY,INCLINATION,RA_OF_ASC_NODE,ARG_OF_PERICENTER,MEAN_ANOMALY,BSTAR,MEAN_MOTION_DOT,MEAN_MOTION_DDOT,TLE_LINE0,TLE_LINE1,TLE_LINE2,SEMIMAJOR_AXIS,PERIOD,APOGEE,PERIGEE,DECAYED
50183.0,STARLINK-3281,PAYLOAD,2024-07-18 22:07:34,15.08839472,0.0001309,53.2162,57.0933,93.8959,266.2183,0.0010807,0.00016953,0.0,0 STARLINK-3281,1 50183U 21125AD  24200.92192396  .00016953  00000-0  10807-2 0  9999,2 50183  53.2162  57.0933 0001309  93.8959 266.2183 15.08839472146254,6917.882,95.438,540.653,538.841,0.0
50183.0,STARLINK-3281,PAYLOAD,2024-07-19 07:39:52,15.08862167,0.0001243,53.2165,55.3058,89.294,270.8194,0.0018775,0.00029737,0.0,0 STARLINK-3281,1 50183U 21125AD  24201.31936078  .00029737  00000-0  18775-2 0  9992,2 50183  53.2165  55.3058 0001243  89.2940 270.8194 15.08862167143181,6917.813,95.436,540.538,538.818,0.0
50183.0,STARLINK-3281,PAYLOAD,2024-07-19 20:22:58,15.0885175,0.0001122,53.2161,52.9315,84.8008,275.3112,0.0015547,0.0002455,0.0,0 STARLINK-3281,1 50183U 21125AD  24201.84928256  .00024550  00000-0  15547-2 0  9991,2 50183  53.2161  52.9315 0001122  84.8008 275.3112 15.08851750143263,6917.844,95.437,540.486,538.933,0.0
50183.0,STARLINK-3281,PAYLOAD,2024-07-20 07:30:39,15.08860658,0.0001168,53.2157,50.8492,84.6259,275.4867,0.0014024,0.00022114,0.0,0 STARLINK-3281,1 50183U 21125AD  24202.31296006  .00022114  00000-0  14024-2 0  9998,2 50183  53.2157  50.8492 0001168  84.6259 275.4867 15.08860658143330,6917.817,95.436,540.49,538.874,0.0
50183.0,STARLINK-3281,PAYLOAD,2024-07-20 20:13:45,15.0884584,0.000115,53.2167,48.4711,96.0729,264.0395,0.0014991,0.00023654,0.0,0 STARLINK-3281,1 50183U 21125AD  24202.84288467  .00023654  00000-0  14991-2 0  9991,2 50183  53.2167  48.4711 0001150  96.0729 264.0395 15.08845840143413,6917.863,95.437,540.523,538.932,0.0
50183.0,STARLINK-3281,PAYLOAD,2024-07-20 23:24:31,15.08847444,0.0001175,53.2169,47.8759,96.789,263.3236,0.0017565,0.00027783,0.0,0 STARLINK-3281,1 50183U 21125AD  24202.97536451  .00027783  00000-0  17565-2 0  9991,2 50183  53.2169  47.8759 0001175  96.7890 263.3236 15.08847444146560,6917.858,95.437,540.535,538.91,0.0
50183.0,STARLINK-3281,PAYLOAD,2024-07-21 20:04:32,15.0883931,0.0001282,53.2172,44.0084,87.4647,272.6491,0.00057226,8.831e-05,0.0,0 STARLINK-3281,1 50183U 21125AD  24203.83648812  .00008831  00000-0  57226-3 0  9994,2 50183  53.2172  44.0084 0001282  87.4647 272.6491 15.08839310143566,6917.882,95.438,540.634,538.861,0.0
50183.0,STARLINK-3281,PAYLOAD,2024-07-22 13:33:46,15.08846706,0.00014,53.2166,40.736,106.676,253.4386,0.00038901,5.91e-05,0.0,0 STARLINK-3281,1 50183U 21125AD  24204.56512630  .00005910  00000-0  38901-3 0  9997,2 50183  53.2166  40.7360 0001400 106.6760 253.4386 15.08846706146808,6917.86,95.437,540.693,538.756,0.0
50183.0,STARLINK-3281,PAYLOAD,2024-07-22 23:06:05,15.0884951,0.0001292,53.2163,38.9513,104.8915,255.222,0.00033774,5.093e-05,0.0,0 STARLINK-3281,1 50183U 21125AD  24204.96256411  .00005093  00000-0  33774-3 0  9998,2 50183  53.2163  38.9513 0001292 104.8915 255.2220 15.08849510143737,6917.851,95.437,540.61,538.823,0.0
50183.0,STARLINK-3281,PAYLOAD,2024-07-23 13:24:33,15.08847936,0.0002479,53.2185,36.2854,96.3546,263.7729,0.0002376,3.496e-05,0.0,0 STARLINK-3281,1 50183U 21125AD  24205.55872481  .00003496  00000-0  23760-3 0  9994,2 50183  53.2185  36.2854 0002479  96.3546 263.7729 15.08847936146958,6917.856,95.437,541.436,538.006,0.0
50183.0,STARLINK-3281,PAYLOAD,2024-07-24 21:12:16,15.08844347,0.0002156,53.217,30.3307,72.9934,287.1294,0.00012144,1.645e-05,0.0,0 STARLINK-3281,1 50183U 21125AD  24206.88352482  .00001645  00000-0  12144-3 0  9993,2 50183  53.2170  30.3307 0002156  72.9934 287.1294 15.08844347147156,6917.867,95.437,541.224,538.241,0.0
50183.0,STARLINK-3281,PAYLOAD,2024-07-24 22:47:39,15.0884494,0.0002045,53.2188,30.0354,72.2845,287.8371,0.00011262,1.505e-05,0.0,0 STARLINK-3281,1 50183U 21125AD  24206.94976438  .00001505  00000-0  11262-3 0  9998,2 50183  53.2188  30.0354 0002045  72.2845 287.8371 15.08844940144031,6917.865,95.437,541.145,538.316,0.0
50183.0,STARLINK-3281,PAYLOAD,2024-07-25 11:30:44,15.08843531,0.0002368,53.2122,27.6584,72.6286,287.4965,-2.741e-05,-7.25e-06,0.0,0 STARLINK-3281,1 50183U 21125AD  24207.47968464 -.00000725  00000-0 -27410-4 0  9995,2 50183  53.2122  27.6584 0002368  72.6286 287.4965 15.08843531147243,6917.87,95.437,541.373,538.096,0.0
50183.0,STARLINK-3281,PAYLOAD,2024-07-26 11:21:32,15.08836626,0.0002715,53.2179,23.1996,86.9913,273.139,5.5914e-05,6.01e-06,0.0,0 STARLINK-3281,1 50183U 21125AD  24208.47329081  .00000601  00000-0  55914-4 0  9993,2 50183  53.2179  23.1996 0002715  86.9913 273.1390 15.08836626144264,6917.891,95.438,541.634,537.877,0.0
50183.0,STARLINK-3281,PAYLOAD,2024-07-26 19:18:27,15.08842302,0.0001415,53.2149,21.7083,79.8796,280.2355,0.00024601,3.63e-05,0.0,0 STARLINK-3281,1 50183U 21125AD  24208.80448801  .00003630  00000-0  24601-3 0  9995,2 50183  53.2149  21.7083 0001415  79.8796 280.2355 15.08842302147449,6917.873,95.437,540.717,538.759,0.0
50183.0,STARLINK-3281,PAYLOAD,2024-07-27 04:50:46,15.08851462,0.0001433,53.2155,19.9242,80.0848,280.0305,0.00033528,5.054e-05,0.0,0 STARLINK-3281,1 50183U 21125AD  24209.20192303  .00005054  00000-0  33528-3 0  9993,2 50183  53.2155  19.9242 0001433  80.0848 280.0305 15.08851462144373,6917.845,95.437,540.702,538.719,0.0
50183.0,STARLINK-3281,PAYLOAD,2024-07-27 11:12:19,15.08847696,0.0002448,53.2065,18.7297,90.1063,270.021,0.00026058,3.862e-05,0.0,0 STARLINK-3281,1 50183U 21125AD  24209.46688746  .00003862  00000-0  26058-3 0  9997,2 50183  53.2065  18.7297 0002448  90.1063 270.0210 15.08847696144411,6917.857,95.437,541.415,538.028,0.0
50183.0,STARLINK-3281,PAYLOAD,2024-07-27 20:44:38,15.08830113,0.0001597,53.2133,16.9492,87.8198,272.2977,6.9045e-06,-1.78e-06,0.0,0 STARLINK-3281,1 50183U 21125AD  24209.86433744 -.00000178  00000-0  69045-5 0  9990,2 50183  53.2133  16.9492 0001597  87.8198 272.2977 15.08830113147604,6917.911,95.438,540.88,538.671,0.0
50183.0,STARLINK-3281,PAYLOAD,2024-07-28 04:41:34,15.08840122,0.0001637,53.2152,15.4639,86.3339,273.784,0.00011426,1.531e-05,0.0,0 STARLINK-3281,1 50183U 21125AD  24210.19553320  .00001531  00000-0  11426-3 0  9992,2 50183  53.2152  15.4639 0001637  86.3339 273.7840 15.08840122144522,6917.88,95.438,540.877,538.613,0.0
50183.0,STARLINK-3281,PAYLOAD,2024-07-28 19:00:02,15.08841171,0.0001491,53.2174,12.7857,107.9256,252.1899,0.00025863,3.831e-05,0.0,0 STARLINK-3281,1 50183U 21125AD  24210.79169557  .00003831  00000-0  25863-3 0  9998,2 50183  53.2174  12.7857 0001491 107.9256 252.1899 15.08841171147741,6917.877,95.437,540.773,538.71,0.0
50183.0,STARLINK-3281,PAYLOAD,2024-07-29 20:26:12,15.08851036,0.0001518,53.2177,8.0293,100.4307,259.6856,0.00042347,6.46e-05,0.0,0 STARLINK-3281,1 50183U 21125AD  24211.85153461  .00006460  00000-0  42347-3 0  9990,2 50183  53.2177   8.0293 0001518 100.4307 259.6856 15.08851036144777,6917.847,95.437,540.762,538.662,0.0
50183.0,STARLINK-3281,PAYLOAD,2024-07-30 10:44:40,15.08847774,0.0001507,53.2175,5.3525,98.3239,261.7924,0.00024152,3.559e-05,0.0,0 STARLINK-3281,1 50183U 21125AD  24212.44769394  .00003559  00000-0  24152-3 0  9994,2 50183  53.2175   5.3525 0001507  98.3239 261.7924 15.08847774144864,6917.857,95.437,540.764,538.679,0.0
50183.0,STARLINK-3281,PAYLOAD,2024-07-30 17:06:13,15.08848115,0.000141,53.2152,4.1653,92.3743,267.7411,0.00024551,3.622e-05,0.0,0 STARLINK-3281,1 50183U 21125AD  24212.71265359  .00003622  00000-0  24551-3 0  9990,2 50183  53.2152   4.1653 0001410  92.3743 267.7411 15.08848115148035,6917.856,95.437,540.696,538.745,0.0
50183.0,STARLINK-3281,PAYLOAD,2024-07-31 13:46:14,15.08823173,0.0001365,53.217,0.2964,92.4932,267.6217,-0.00026816,-4.551e-05,0.0,0 STARLINK-3281,1 50183U 21125AD  24213.57378008 -.00004551  00000-0 -26816-3 0  9991,2 50183  53.2170   0.2964 0001365  92.4932 267.6217 15.08823173145034,6917.932,95.439,540.741,538.853,0.0
50183.0,STARLINK-3281,PAYLOAD,2024-07-31 20:07:46,15.08835828,0.0001307,53.217,359.1072,91.1037,269.0105,2.3005e-05,7.8e-07,0.0,0 STARLINK-3281,1 50183U 21125AD  24213.83873773  .00000078  00000-0  23005-4 0  9995,2 50183  53.2170 359.1072 0001307  91.1037 269.0105 15.08835828145074,6917.893,95.438,540.662,538.854,0.0
50183.0,STARLINK-3281,PAYLOAD,2024-08-01 10:26:15,15.08844088,0.0001889,53.2202,356.4342,98.0517,262.069,0.00022956,3.368e-05,0.0,0 STARLINK-3281,1 50183U 21125AD  24214.43489739  .00003368  00000-0  22956-3 0  9995,2 50183  53.2202 356.4342 0001889  98.0517 262.0690 15.08844088148291,6917.868,95.437,541.04,538.426,0.0
50183.0,STARLINK-3281,PAYLOAD,2024-08-01 18:23:10,15.08851957,0.0001666,53.2168,354.9457,94.914,265.2043,0.00049621,7.621e-05,0.0,0 STARLINK-3281,1 50183U 21125AD  24214.76609426  .00007621  00000-0  49621-3 0  9992,2 50183  53.2168 354.9457 0001666  94.9140 265.2043 15.08851957145211,6917.844,95.437,540.861,538.556,0.0
50183.0,STARLINK-3281,PAYLOAD,2024-08-02 02:20:05,15.08871259,0.0001072,53.218,353.459,81.3691,278.7422,0.00086501,0.00013517,0.0,0 STARLINK-3281,1 50183U 21125AD  24215.09728462  .00013517  00000-0  86501-3 0  9990,2 50183  53.2180 353.4590 0001072  81.3691 278.7422 15.08871259145261,6917.785,95.436,540.391,538.908,0.0
50183.0,STARLINK-3281,PAYLOAD,2024-08-02 13:27:48,15.08822063,0.0001825,53.2179,351.3781,88.6601,271.46,-0.0004766,-7.862e-05,0.0,0 STARLINK-3281,1 50183U 21125AD  24215.56098254 -.00007862  00000-0 -47660-3 0  9992,2 50183  53.2179 351.3781 0001825  88.6601 271.4600 15.08822063145330,6917.935,95.439,541.063,538.538,0.0
50183.0,STARLINK-3281,PAYLOAD,2024-08-02 15:03:12,15.08822521,0.0001693,53.2186,351.081,90.2372,269.8814,-0.00039331,-6.539e-05,0.0,0 STARLINK-3281,1 50183U 21125AD  24215.62722279 -.00006539  00000-0 -39331-3 0  9996,2 50183  53.2186 351.0810 0001693  90.2372 269.8814 15.08822521148470,6917.934,95.439,540.97,538.628,0.0
